{
    "links": {
        "self": "http://www.neowsapp.com/rest/v1/neo/3760533?api_key=iIulBulltgU6a56xZRHN4H3l9WmuAYTsLGpBGhQ2"
    },
    "id": "3760533",
    "neo_reference_id": "3760533",
    "name": "(2016 TJ17)",
    "designation": "2016 TJ17",
    "nasa_jpl_url": "http://ssd.jpl.nasa.gov/sbdb.cgi?sstr=3760533",
    "absolute_magnitude_h": 25.3,
    "estimated_diameter": {
        "kilometers": {
            "estimated_diameter_min": 0.0231502122,
            "estimated_diameter_max": 0.0517654482
        },
        "meters": {
            "estimated_diameter_min": 23.150212221,
            "estimated_diameter_max": 51.7654482198
        },
        "miles": {
            "estimated_diameter_min": 0.0143848705,
            "estimated_diameter_max": 0.0321655483
        },
        "feet": {
            "estimated_diameter_min": 75.9521422633,
            "estimated_diameter_max": 169.8341531374
        }
    },
    "is_potentially_hazardous_asteroid": false,
    "close_approach_data": [
        {
            "close_approach_date": "2013-05-05",
            "close_approach_date_full": "2013-May-05 18:13",
            "epoch_date_close_approach": 1367777580000,
            "relative_velocity": {
                "kilometers_per_second": "24.0753319331",
                "kilometers_per_hour": "86671.1949592417",
                "miles_per_hour": "53854.1100012022"
            },
            "miss_distance": {
                "astronomical": "0.2666450768",
                "lunar": "103.7249348752",
                "kilometers": "39889535.535266416",
                "miles": "24786208.0298759008"
            },
            "orbiting_body": "Earth"
        },
        {
            "close_approach_date": "2015-01-17",
            "close_approach_date_full": "2015-Jan-17 03:55",
            "epoch_date_close_approach": 1421466900000,
            "relative_velocity": {
                "kilometers_per_second": "3.4951461262",
                "kilometers_per_hour": "12582.5260544706",
                "miles_per_hour": "7818.2923697903"
            },
            "miss_distance": {
                "astronomical": "1.8911476268",
                "lunar": "735.6564268252",
                "kilometers": "282911656.824834916",
                "miles": "175793151.9141812008"
            },
            "orbiting_body": "Juptr"
        },
        {
            "close_approach_date": "2016-10-04",
            "close_approach_date_full": "2016-Oct-04 11:20",
            "epoch_date_close_approach": 1475580000000,
            "relative_velocity": {
                "kilometers_per_second": "15.7221848674",
                "kilometers_per_hour": "56599.8655225363",
                "miles_per_hour": "35168.9553298226"
            },
            "miss_distance": {
                "astronomical": "0.0043054036",
                "lunar": "1.6748020004",
                "kilometers": "644079.208050332",
                "miles": "400212.2617933016"
            },
            "orbiting_body": "Moon"
        },
        {
            "close_approach_date": "2016-10-04",
            "close_approach_date_full": "2016-Oct-04 18:15",
            "epoch_date_close_approach": 1475604900000,
            "relative_velocity": {
                "kilometers_per_second": "16.098235366",
                "kilometers_per_hour": "57953.6473176101",
                "miles_per_hour": "36010.1426902117"
            },
            "miss_distance": {
                "astronomical": "0.0031378625",
                "lunar": "1.2206285125",
                "kilometers": "469417.546352875",
                "miles": "291682.537804675"
            },
            "orbiting_body": "Earth"
        }
    ],
    "orbital_data": {
        "orbit_id": "11",
        "orbit_determination_date": "2019-12-04 07:15:43",
        "first_observation_date": "2016-10-06",
        "last_observation_date": "2016-10-25",
        "data_arc_in_days": 19,
        "observations_used": 86,
        "orbit_uncertainty": "7",
        "minimum_orbit_intersection": ".00118454",
        "jupiter_tisserand_invariant": "3.429",
        "epoch_osculation": "2459000.5",
        "eccentricity": ".6348616327818",
        "semi_major_axis": "2.131358663840614",
        "inclination": "2.424444741810276",
        "ascending_node_longitude": "13.61067265521202",
        "orbital_period": "1136.536100157448",
        "perihelion_distance": ".7782408224711264",
        "perihelion_argument": "293.8510504582122",
        "aphelion_distance": "3.484476505210102",
        "perihelion_time": "2458760.510887984965",
        "mean_anomaly": "76.01701372569136",
        "mean_motion": ".3167519271496331",
        "equinox": "J2000",
        "orbit_class": {
            "orbit_class_type": "APO",
            "orbit_class_description": "Near-Earth asteroid orbits which cross the Earth’s orbit similar to that of 1862 Apollo",
            "orbit_class_range": "a (semi-major axis) > 1.0 AU; q (perihelion) < 1.017 AU"
        }
    },
    "is_sentry_object": false
}